[{"OBJECT_NAME":"STARLINK-31686","OBJECT_ID":"2024-076R","EPOCH":"2026-03-09T05:09:20.728800","MEAN_MOTION":15.27598261,"ECCENTRICITY":0.00012071,"INCLINATION":43.0054,"RA_OF_ASC_NODE":11.3685,"ARG_OF_PERICENTER":273.6352,"MEAN_ANOMALY":86.4362,"EPHEMERIS_TYPE":0,"CLASSIFICATION_TYPE":"U","NORAD_CAT_ID":59579,"ELEMENT_SET_NO":999,"REV_AT_EPOCH":10643,"BSTAR":7.4477221e-5,"MEAN_MOTION_DOT":1.789e-5,"MEAN_MOTION_DDOT":0},{"OBJECT_NAME":"DMSP 5D-2 F13 DEB","OBJECT_ID":"1995-015HL","EPOCH":"2026-02-09T02:06:19.247328","MEAN_MOTION":15.12822218,"ECCENTRICITY":0.00117732,"INCLINATION":98.8603,"RA_OF_ASC_NODE":96.8879,"ARG_OF_PERICENTER":223.037,"MEAN_ANOMALY":136.9936,"EPHEMERIS_TYPE":0,"CLASSIFICATION_TYPE":"U","NORAD_CAT_ID":42294,"ELEMENT_SET_NO":999,"REV_AT_EPOCH":55633,"BSTAR":0.010466292,"MEAN_MOTION_DOT":0.00188804,"MEAN_MOTION_DDOT":0}]
